{"type": "FeatureCollection", "features": [ {"type": "Feature", "properties": {"norad_id": 38552, "name": "METEOSAT-10 (MSG-3)", "group": "weather", "lat": 4.150264029229764, "lon": 165.26005240770274, "alt_km": 35792.883452266535, "timestamp": "2025-12-26T04:40:05.429575+00:00", "meta": {"OBJECT_NAME": "METEOSAT-10 (MSG-3)", "OBJECT_ID": "2012-035B", "EPOCH": "2025-12-25T19:55:02.808768", "MEAN_MOTION": 1.00266624, "ECCENTRICITY": 0.00014788, "INCLINATION": 4.2575, "RA_OF_ASC_NODE": 61.6862, "ARG_OF_PERICENTER": 265.335, "MEAN_ANOMALY": 66.5982, "EPHEMERIS_TYPE": 0, "CLASSIFICATION_TYPE": "U", "NORAD_CAT_ID": 38552, "ELEMENT_SET_NO": 999, "REV_AT_EPOCH": 4911, "BSTAR": 0, "MEAN_MOTION_DOT": 1.4e-07, "MEAN_MOTION_DDOT": 0}, "tle": {"line1": "1 38552U 12035B   25359.82989362  .00000014  00000+0  00000+0 0  9998", "line2": "2 38552   4.2575  61.6862 0001478 265.3350  66.5982  1.00266624 49119"}}, "geometry": {"type": "Point", "coordinates": [165.26005240770274, 4.150264029229764]}}, {"type": "Feature", "properties": {"norad_id": 38771, "name": "METOP-B", "group": "weather", "lat": 41.28168889545105, "lon": -122.37009450613438, "alt_km": 815.0409257589336, "timestamp": "2025-12-26T04:40:05.429593+00:00", "meta": {"OBJECT_NAME": "METOP-B", "OBJECT_ID": "2012-049A", "EPOCH": "2025-12-25T21:15:48.409344", "MEAN_MOTION": 14.21413207, "ECCENTRICITY": 0.0003282, "INCLINATION": 98.6781, "RA_OF_ASC_NODE": 49.6208, "ARG_OF_PERICENTER": 116.7785, "MEAN_ANOMALY": 243.3728, "EPHEMERIS_TYPE": 0, "CLASSIFICATION_TYPE": "U", "NORAD_CAT_ID": 38771, "ELEMENT_SET_NO": 999, "REV_AT_EPOCH": 68864, "BSTAR": 7.8569223e-05, "MEAN_MOTION_DOT": 1.28e-06, "MEAN_MOTION_DDOT": 0}, "tle": {"line1": "1 38771U 12049A   25359.88597696  .00000128  00000+0  78569-4 0  9993", "line2": "2 38771  98.6781  49.6208 0003282 116.7785 243.3728 14.21413207688642"}}, "geometry": {"type": "Point", "coordinates": [-122.37009450613438, 41.28168889545105]}}, {"type": "Feature", "properties": {"norad_id": 39216, "name": "INSAT-3D", "group": "weather", "lat": -0.7507126857019862, "lon": -65.47996267573265, "alt_km": 35780.73637900212, "timestamp": "2025-12-26T04:40:05.429605+00:00", "meta": {"OBJECT_NAME": "INSAT-3D", "OBJECT_ID": "2013-038B", "EPOCH": "2025-12-25T13:20:09.572640", "MEAN_MOTION": 1.00273996, "ECCENTRICITY": 0.00019179, "INCLINATION": 1.4761, "RA_OF_ASC_NODE": 84.8524, "ARG_OF_PERICENTER": 156.8328, "MEAN_ANOMALY": 182.2136, "EPHEMERIS_TYPE": 0, "CLASSIFICATION_TYPE": "U", "NORAD_CAT_ID": 39216, "ELEMENT_SET_NO": 999, "REV_AT_EPOCH": 4533, "BSTAR": 0, "MEAN_MOTION_DOT": -3.18e-06, "MEAN_MOTION_DDOT": 0}, "tle": {"line1": "1 39216U 13038B   25359.55566635 -.00000318  00000+0  00000+0 0  9992", "line2": "2 39216   1.4761  84.8524 0001917 156.8328 182.2136  1.00273996 45339"}}, "geometry": {"type": "Point", "coordinates": [-65.47996267573265, -0.7507126857019862]}}, {"type": "Feature", "properties": {"norad_id": 39260, "name": "FENGYUN 3C", "group": "weather", "lat": 69.81385019011167, "lon": -178.84808537522449, "alt_km": 826.0113251250832, "timestamp": "2025-12-26T04:40:05.429616+00:00", "meta": {"OBJECT_NAME": "FENGYUN 3C", "OBJECT_ID": "2013-052A", "EPOCH": "2025-12-25T23:04:09.121152", "MEAN_MOTION": 14.15700264, "ECCENTRICITY": 0.00150217, "INCLINATION": 98.4779, "RA_OF_ASC_NODE": 336.996, "ARG_OF_PERICENTER": 157.9781, "MEAN_ANOMALY": 202.2043, "EPHEMERIS_TYPE": 0, "CLASSIFICATION_TYPE": "U", "NORAD_CAT_ID": 39260, "ELEMENT_SET_NO": 999, "REV_AT_EPOCH": 63405, "BSTAR": 7.9772217e-05, "MEAN_MOTION_DOT": 1.15e-06, "MEAN_MOTION_DDOT": 0}, "tle": {"line1": "1 39260U 13052A   25359.96121668  .00000115  00000+0  79772-4 0  9996", "line2": "2 39260  98.4779 336.9960 0015021 157.9781 202.2043 14.15700264634050"}}, "geometry": {"type": "Point", "coordinates": [-178.84808537522449, 69.81385019011167]}}, {"type": "Feature", "properties": {"norad_id": 40069, "name": "METEOR-M 2", "group": "weather", "lat": 4.929648494691576, "lon": -23.47449640510664, "alt_km": 826.8315123484172, "timestamp": "2025-12-26T04:40:05.429627+00:00", "meta": {"OBJECT_NAME": "METEOR-M 2", "OBJECT_ID": "2014-037A", "EPOCH": "2025-12-25T21:53:13.130592", "MEAN_MOTION": 14.21391935, "ECCENTRICITY": 0.00056962, "INCLINATION": 98.4921, "RA_OF_ASC_NODE": 336.9921, "ARG_OF_PERICENTER": 169.0721, "MEAN_ANOMALY": 191.0582, "EPHEMERIS_TYPE": 0, "CLASSIFICATION_TYPE": "U", "NORAD_CAT_ID": 40069, "ELEMENT_SET_NO": 999, "REV_AT_EPOCH": 59470, "BSTAR": 0.00012300247, "MEAN_MOTION_DOT": 2.27e-06, "MEAN_MOTION_DDOT": 0}, "tle": {"line1": "1 40069U 14037A   25359.91195753  .00000227  00000+0  12300-3 0  9997", "line2": "2 40069  98.4921 336.9921 0005696 169.0721 191.0582 14.21391935594708"}}, "geometry": {"type": "Point", "coordinates": [-23.47449640510664, 4.929648494691576]}}, {"type": "Feature", "properties": {"norad_id": 40267, "name": "HIMAWARI-8", "group": "weather", "lat": 0.022428112694137914, "lon": -54.37465574463682, "alt_km": 35782.21692364696, "timestamp": "2025-12-26T04:40:05.429639+00:00", "meta": {"OBJECT_NAME": "HIMAWARI-8", "OBJECT_ID": "2014-060A", "EPOCH": "2025-12-25T18:52:08.831712", "MEAN_MOTION": 1.00270926, "ECCENTRICITY": 9.821e-05, "INCLINATION": 0.043, "RA_OF_ASC_NODE": 197.7333, "ARG_OF_PERICENTER": 107.2072, "MEAN_ANOMALY": 213.3047, "EPHEMERIS_TYPE": 0, "CLASSIFICATION_TYPE": "U", "NORAD_CAT_ID": 40267, "ELEMENT_SET_NO": 999, "REV_AT_EPOCH": 4102, "BSTAR": 0, "MEAN_MOTION_DOT": -2.54e-06, "MEAN_MOTION_DDOT": 0}, "tle": {"line1": "1 40267U 14060A   25359.78621333 -.00000254  00000+0  00000+0 0  9997", "line2": "2 40267   0.0430 197.7333 0000982 107.2072 213.3047  1.00270926 41023"}}, "geometry": {"type": "Point", "coordinates": [-54.37465574463682, 0.022428112694137914]}}, {"type": "Feature", "properties": {"norad_id": 40367, "name": "FENGYUN 2G", "group": "weather", "lat": -0.8563832631934102, "lon": -95.79351993774755, "alt_km": 35776.49704453108, "timestamp": "2025-12-26T04:40:05.429650+00:00", "meta": {"OBJECT_NAME": "FENGYUN 2G", "OBJECT_ID": "2014-090A", "EPOCH": "2025-12-25T18:56:24.512640", "MEAN_MOTION": 1.00281963, "ECCENTRICITY": 0.00017123, "INCLINATION": 5.1984, "RA_OF_ASC_NODE": 74.9353, "ARG_OF_PERICENTER": 171.7159, "MEAN_ANOMALY": 231.2546, "EPHEMERIS_TYPE": 0, "CLASSIFICATION_TYPE": "U", "NORAD_CAT_ID": 40367, "ELEMENT_SET_NO": 999, "REV_AT_EPOCH": 4026, "BSTAR": 0, "MEAN_MOTION_DOT": -2.82e-06, "MEAN_MOTION_DDOT": 0}, "tle": {"line1": "1 40367U 14090A   25359.78917260 -.00000282  00000+0  00000+0 0  9999", "line2": "2 40367   5.1984  74.9353 0001712 171.7159 231.2546  1.00281963 40267"}}, "geometry": {"type": "Point", "coordinates": [-95.79351993774755, -0.8563832631934102]}}, {"type": "Feature", "properties": {"norad_id": 40732, "name": "METEOSAT-11 (MSG-4)", "group": "weather", "lat": 2.7150528944362096, "lon": 174.1541538412889, "alt_km": 35783.340611975604, "timestamp": "2025-12-26T04:40:05.429663+00:00", "meta": {"OBJECT_NAME": "METEOSAT-11 (MSG-4)", "OBJECT_ID": "2015-034A", "EPOCH": "2025-12-25T16:31:52.264704", "MEAN_MOTION": 1.00271545, "ECCENTRICITY": 6.999e-05, "INCLINATION": 2.7688, "RA_OF_ASC_NODE": 71.966, "ARG_OF_PERICENTER": 136.703, "MEAN_ANOMALY": 142.9271, "EPHEMERIS_TYPE": 0, "CLASSIFICATION_TYPE": "U", "NORAD_CAT_ID": 40732, "ELEMENT_SET_NO": 999, "REV_AT_EPOCH": 547, "BSTAR": 0, "MEAN_MOTION_DOT": 8.2e-07, "MEAN_MOTION_DDOT": 0}, "tle": {"line1": "1 40732U 15034A   25359.68879936  .00000082  00000+0  00000+0 0  9997", "line2": "2 40732   2.7688  71.9660 0000699 136.7030 142.9271  1.00271545  5479"}}, "geometry": {"type": "Point", "coordinates": [174.1541538412889, 2.7150528944362096]}}, {"type": "Feature", "properties": {"norad_id": 41105, "name": "ELEKTRO-L 2", "group": "weather", "lat": 6.13069001956363, "lon": 150.39370338139193, "alt_km": 35794.93790167534, "timestamp": "2025-12-26T04:40:05.429676+00:00", "meta": {"OBJECT_NAME": "ELEKTRO-L 2", "OBJECT_ID": "2015-074A", "EPOCH": "2025-12-24T23:18:12.436992", "MEAN_MOTION": 1.0027204, "ECCENTRICITY": 0.000354, "INCLINATION": 6.2545, "RA_OF_ASC_NODE": 72.6824, "ARG_OF_PERICENTER": 208.1447, "MEAN_ANOMALY": 147.994, "EPHEMERIS_TYPE": 0, "CLASSIFICATION_TYPE": "U", "NORAD_CAT_ID": 41105, "ELEMENT_SET_NO": 999, "REV_AT_EPOCH": 3675, "BSTAR": 0, "MEAN_MOTION_DOT": -9.8e-07, "MEAN_MOTION_DDOT": 0}, "tle": {"line1": "1 41105U 15074A   25358.97097728 -.00000098  00000+0  00000+0 0  9996", "line2": "2 41105   6.2545  72.6824 0003540 208.1447 147.9940  1.00272040 36753"}}, "geometry": {"type": "Point", "coordinates": [150.39370338139193, 6.13069001956363]}}, {"type": "Feature", "properties": {"norad_id": 41752, "name": "INSAT-3DR", "group": "weather", "lat": 0.0426235245887447, "lon": -121.14199964529662, "alt_km": 35735.57338128909, "timestamp": "2025-12-26T04:40:05.429688+00:00", "meta": {"OBJECT_NAME": "INSAT-3DR", "OBJECT_ID": "2016-054A", "EPOCH": "2025-12-24T15:09:51.705216", "MEAN_MOTION": 1.00271379, "ECCENTRICITY": 0.00142635, "INCLINATION": 0.1198, "RA_OF_ASC_NODE": 86.2568, "ARG_OF_PERICENTER": 185.6475, "MEAN_ANOMALY": 122.9543, "EPHEMERIS_TYPE": 0, "CLASSIFICATION_TYPE": "U", "NORAD_CAT_ID": 41752, "ELEMENT_SET_NO": 999, "REV_AT_EPOCH": 3406, "BSTAR": 0, "MEAN_MOTION_DOT": -5.6e-07, "MEAN_MOTION_DDOT": 0}, "tle": {"line1": "1 41752U 16054A   25358.63184844 -.00000056  00000+0  00000+0 0  9996", "line2": "2 41752   0.1198  86.2568 0014263 185.6475 122.9543  1.00271379 34066"}}, "geometry": {"type": "Point", "coordinates": [-121.14199964529662, 0.0426235245887447]}}]}